NORAD_CAT_ID,OBJECT_NAME,OBJECT_TYPE,EPOCH,MEAN_MOTION,ECCENTRICITY,INCLINATION,RA_OF_ASC_NODE,ARG_OF_PERICENTER,MEAN_ANOMALY,BSTAR,MEAN_MOTION_DOT,MEAN_MOTION_DDOT,TLE_LINE0,TLE_LINE1,TLE_LINE2,SEMIMAJOR_AXIS,PERIOD,APOGEE,PERIGEE,DECAYED
54087.0,STARLINK-5184,PAYLOAD,2023-02-15 22:49:03,15.08846722,0.0001133,53.2178,311.8315,67.3114,292.7998,0.00016914,2.406e-05,0.0,0 STARLINK-5184,1 54087U 22136AN  23046.95073217  .00002406  00000-0  16914-3 0  9993,2 54087  53.2178 311.8315 0001133  67.3114 292.7998 15.08846722 18710,6917.86,95.437,540.509,538.941,0.0
54087.0,STARLINK-5184,PAYLOAD,2023-02-16 09:56:45,15.08847796,0.0001215,53.2185,309.749,76.2136,283.8991,-2.6425e-05,-7.08e-06,0.0,0 STARLINK-5184,1 54087U 22136AN  23047.41441541 -.00000708  00000-0 -26425-4 0  9998,2 54087  53.2185 309.7490 0001215  76.2136 283.8991 15.08847796 18314,6917.857,95.437,540.562,538.881,0.0
54087.0,STARLINK-5184,PAYLOAD,2023-02-16 22:39:51,15.08826964,7.25e-05,53.2164,307.3698,70.9198,289.1873,-8.0071e-05,-1.561e-05,0.0,0 STARLINK-5184,1 54087U 22136AN  23047.94435098 -.00001561  00000-0 -80071-4 0  9991,2 54087  53.2164 307.3698 0000725  70.9198 289.1873 15.08826964 18861,6917.92,95.438,540.287,539.284,0.0
54087.0,STARLINK-5184,PAYLOAD,2023-02-17 00:15:13,15.08847008,7.36e-05,53.2169,307.071,99.063,261.0445,8.9235e-05,1.133e-05,0.0,0 STARLINK-5184,1 54087U 22136AN  23048.01057379  .00001133  00000-0  89235-4 0  9996,2 54087  53.2169 307.0710 0000736  99.0630 261.0445 15.08847008 18870,6917.859,95.437,540.233,539.215,0.0
54087.0,STARLINK-5184,PAYLOAD,2023-02-17 09:47:32,15.08847692,7.18e-05,53.2168,305.2868,97.8834,262.224,8.6601e-05,1.091e-05,0.0,0 STARLINK-5184,1 54087U 22136AN  23048.40801180  .00001091  00000-0  86601-4 0  9993,2 54087  53.2168 305.2868 0000718  97.8834 262.2240 15.08847692 18465,6917.857,95.437,540.219,539.225,0.0
54087.0,STARLINK-5184,PAYLOAD,2023-02-17 16:09:06,15.08829715,0.0001097,53.2166,304.0983,33.8753,326.2309,-0.00015341,-2.728e-05,0.0,0 STARLINK-5184,1 54087U 22136AN  23048.67299670 -.00002728  00000-0 -15341-3 0  9999,2 54087  53.2166 304.0983 0001097  33.8753 326.2309 15.08829715 18978,6917.912,95.438,540.536,539.018,0.0
54087.0,STARLINK-5184,PAYLOAD,2023-02-17 20:55:16,15.08827912,0.0001049,53.2169,303.2044,65.4095,294.7006,-0.00016389,-2.894e-05,0.0,0 STARLINK-5184,1 54087U 22136AN  23048.87172116 -.00002894  00000-0 -16389-3 0  9993,2 54087  53.2169 303.2044 0001049  65.4095 294.7006 15.08827912 18539,6917.917,95.438,540.508,539.057,0.0
54087.0,STARLINK-5184,PAYLOAD,2023-02-18 09:38:21,15.08831348,0.0001027,53.2183,300.8314,99.0932,261.0176,2.6959e-05,1.41e-06,0.0,0 STARLINK-5184,1 54087U 22136AN  23049.40163681  .00000141  00000-0  26959-4 0  9996,2 54087  53.2183 300.8314 0001027  99.0932 261.0176 15.08831348 19081,6917.907,95.438,540.482,539.061,0.0
54087.0,STARLINK-5184,PAYLOAD,2023-02-18 23:56:48,15.08852035,0.0001105,53.218,298.1516,84.8794,275.2324,0.00012066,1.634e-05,0.0,0 STARLINK-5184,1 54087U 22136AN  23049.99778209  .00001634  00000-0  12066-3 0  9999,2 54087  53.2180 298.1516 0001105  84.8794 275.2324 15.08852035 19174,6917.844,95.437,540.473,538.944,0.0
54087.0,STARLINK-5184,PAYLOAD,2023-02-19 09:29:07,15.08848866,9.91e-05,53.2175,296.3675,100.0531,260.0573,8.0249e-05,9.9e-06,0.0,0 STARLINK-5184,1 54087U 22136AN  23050.39522268  .00000990  00000-0  80249-4 0  9990,2 54087  53.2175 296.3675 0000991 100.0531 260.0573 15.08848866 18765,6917.853,95.437,540.404,539.033,0.0
54087.0,STARLINK-5184,PAYLOAD,2023-02-19 22:12:13,15.0883214,0.0001224,53.2178,293.9888,95.151,264.9622,0.00016669,2.365e-05,0.0,0 STARLINK-5184,1 54087U 22136AN  23050.92515340  .00002365  00000-0  16669-3 0  9994,2 54087  53.2178 293.9888 0001224  95.1510 264.9622 15.08832140 19316,6917.904,95.438,540.616,538.923,0.0
54087.0,STARLINK-5184,PAYLOAD,2023-02-20 01:22:58,15.08841438,0.0001279,53.2182,293.3927,94.4718,265.642,0.00021032,3.061e-05,0.0,0 STARLINK-5184,1 54087U 22136AN  23051.05762694  .00003061  00000-0  21032-3 0  9999,2 54087  53.2182 293.3927 0001279  94.4718 265.6420 15.08841438 19337,6917.876,95.437,540.626,538.856,0.0
54087.0,STARLINK-5184,PAYLOAD,2023-02-20 09:19:55,15.08836887,0.0001168,53.2178,291.9049,87.6287,272.4839,0.00010575,1.395e-05,0.0,0 STARLINK-5184,1 54087U 22136AN  23051.38883252  .00001395  00000-0  10575-3 0  9997,2 54087  53.2178 291.9049 0001168  87.6287 272.4839 15.08836887 19380,6917.89,95.438,540.563,538.947,0.0
54087.0,STARLINK-5184,PAYLOAD,2023-02-20 22:02:59,15.08849993,0.0001196,53.2175,289.5268,90.5822,269.5308,-2.6462e-05,-7.09e-06,0.0,0 STARLINK-5184,1 54087U 22136AN  23051.91874503 -.00000709  00000-0 -26462-4 0  9998,2 54087  53.2175 289.5268 0001196  90.5822 269.5308 15.08849993 19461,6917.85,95.437,540.542,538.887,0.0
54087.0,STARLINK-5184,PAYLOAD,2023-02-21 01:13:45,15.08857557,0.0001484,53.2175,288.9325,69.6016,290.5136,-1.6807e-05,-5.56e-06,0.0,0 STARLINK-5184,1 54087U 22136AN  23052.05121882 -.00000556  00000-0 -16807-4 0  9991,2 54087  53.2175 288.9325 0001484  69.6016 290.5136 15.08857557 19480,6917.827,95.436,540.718,538.665,0.0
54087.0,STARLINK-5184,PAYLOAD,2023-02-21 09:10:41,15.08844983,0.0001467,53.2175,287.4472,87.044,273.0721,-5.1865e-05,-1.113e-05,0.0,0 STARLINK-5184,1 54087U 22136AN  23052.38242616 -.00001113  00000-0 -51865-4 0  9999,2 54087  53.2175 287.4472 0001467  87.0440 273.0721 15.08844983 19062,6917.865,95.437,540.745,538.715,0.0
54087.0,STARLINK-5184,PAYLOAD,2023-02-21 15:32:14,15.08841166,0.0001425,53.2168,286.2572,85.5532,274.5623,2.1715e-05,5.8e-07,0.0,0 STARLINK-5184,1 54087U 22136AN  23052.64738479  .00000058  00000-0  21715-4 0  9991,2 54087  53.2168 286.2572 0001425  85.5532 274.5623 15.08841166 19574,6917.877,95.437,540.728,538.756,0.0
54087.0,STARLINK-5184,PAYLOAD,2023-02-21 21:53:46,15.08851469,0.0001261,53.2168,285.0668,90.7558,269.3578,7.0266e-06,-1.76e-06,0.0,0 STARLINK-5184,1 54087U 22136AN  23052.91233861 -.00000176  00000-0  70266-5 0  9994,2 54087  53.2168 285.0668 0001261  90.7558 269.3578 15.08851469 19142,6917.845,95.437,540.583,538.838,0.0
54087.0,STARLINK-5184,PAYLOAD,2023-02-22 02:39:55,15.08854115,0.0001298,53.2169,284.1748,89.4038,270.7103,3.202e-05,2.22e-06,0.0,0 STARLINK-5184,1 54087U 22136AN  23053.11105348  .00000222  00000-0  32020-4 0  9991,2 54087  53.2169 284.1748 0001298  89.4038 270.7103 15.08854115 19646,6917.837,95.437,540.6,538.804,0.0
54087.0,STARLINK-5184,PAYLOAD,2023-02-22 21:44:34,15.0884321,0.0001416,53.2168,280.6078,80.354,279.7612,-0.00013827,-2.488e-05,0.0,0 STARLINK-5184,1 54087U 22136AN  23053.90595579 -.00002488  00000-0 -13827-3 0  9998,2 54087  53.2168 280.6078 0001416  80.3540 279.7612 15.08843210 19291,6917.871,95.437,540.715,538.756,0.0
54087.0,STARLINK-5184,PAYLOAD,2023-02-23 08:00:01,15.08850135,0.0001149,53.2153,278.6879,92.336,70.5731,-0.00042091,-6.982e-05,0.0,0 STARLINK-5184,1 54087U 22136AN  23054.33334491 -.00006982  00000-0 -42091-3 0  9998,2 54087  53.2153 278.6879 0001149  92.3360  70.5731 15.08850135 19829,6917.849,95.437,540.509,538.92,0.0
54087.0,STARLINK-5184,PAYLOAD,2023-02-23 10:27:38,15.08813864,0.000127,53.2162,278.2285,106.1196,253.9936,0.00029289,4.373e-05,0.0,0 STARLINK-5184,1 54087U 22136AN  23054.43586112  .00004373  00000-0  29289-3 0  9992,2 54087  53.2162 278.2285 0001270 106.1196 253.9936 15.08813864 19374,6917.96,95.439,540.704,538.947,0.0
54087.0,STARLINK-5184,PAYLOAD,2023-02-23 21:35:19,15.08853447,0.0001297,53.2156,276.1465,92.2856,267.8284,5.4346e-05,5.77e-06,0.0,0 STARLINK-5184,1 54087U 22136AN  23054.89953661  .00000577  00000-0  54346-4 0  9994,2 54087  53.2156 276.1465 0001297  92.2856 267.8284 15.08853447 19912,6917.839,95.437,540.602,538.807,0.0
54087.0,STARLINK-5184,PAYLOAD,2023-02-24 00:46:05,15.08856571,0.0001215,53.2165,275.5518,91.3955,268.7176,8.6443e-05,1.089e-05,0.0,0 STARLINK-5184,1 54087U 22136AN  23055.03201279  .00001089  00000-0  86443-4 0  9994,2 54087  53.2165 275.5518 0001215  91.3955 268.7176 15.08856571 19465,6917.83,95.437,540.535,538.854,0.0
54087.0,STARLINK-5184,PAYLOAD,2023-02-24 16:39:58,15.08831421,0.0001256,53.2158,272.5785,90.5337,269.5799,4.6048e-05,4.45e-06,0.0,0 STARLINK-5184,1 54087U 22136AN  23055.69443181  .00000445  00000-0  46048-4 0  9998,2 54087  53.2158 272.5785 0001256  90.5337 269.5799 15.08831421 20032,6917.907,95.438,540.641,538.903,0.0
54087.0,STARLINK-5184,PAYLOAD,2023-02-24 21:26:08,15.08833787,0.0001148,53.2161,271.6862,101.6681,258.444,6.6819e-05,7.76e-06,0.0,0 STARLINK-5184,1 54087U 22136AN  23055.89315065  .00000776  00000-0  66819-4 0  9994,2 54087  53.2161 271.6862 0001148 101.6681 258.4440 15.08833787 19594,6917.899,95.438,540.559,538.97,0.0
54087.0,STARLINK-5184,PAYLOAD,2023-02-25 06:58:26,15.08840333,0.0001194,53.2162,269.9018,102.587,257.5255,9.2219e-05,1.18e-05,0.0,0 STARLINK-5184,1 54087U 22136AN  23056.29058769  .00001180  00000-0  92219-4 0  9997,2 54087  53.2162 269.9018 0001194 102.5870 257.5255 15.08840333 20129,6917.879,95.438,540.57,538.918,0.0
54087.0,STARLINK-5184,PAYLOAD,2023-02-25 13:19:59,15.08834994,0.0001294,53.2161,268.7121,107.8016,252.3118,2.6488e-05,1.34e-06,0.0,0 STARLINK-5184,1 54087U 22136AN  23056.55555365  .00000134  00000-0  26488-4 0  9993,2 54087  53.2161 268.7121 0001294 107.8016 252.3118 15.08834994 19698,6917.896,95.438,540.656,538.866,0.0
54087.0,STARLINK-5184,PAYLOAD,2023-02-25 18:06:09,15.08838049,0.0001243,53.2166,267.8204,102.7547,257.3584,-4.0583e-06,-3.52e-06,0.0,0 STARLINK-5184,1 54087U 22136AN  23056.75427331 -.00000352  00000-0 -40583-5 0  9993,2 54087  53.2166 267.8204 0001243 102.7547 257.3584 15.08838049 20196,6917.886,95.438,540.611,538.891,0.0
54087.0,STARLINK-5184,PAYLOAD,2023-02-25 21:16:55,15.08841502,0.0001225,53.2169,267.2259,105.8208,254.2919,2.9518e-05,1.82e-06,0.0,0 STARLINK-5184,1 54087U 22136AN  23056.88675065  .00000182  00000-0  29518-4 0  9999,2 54087  53.2169 267.2259 0001225 105.8208 254.2919 15.08841502 19746,6917.876,95.437,540.588,538.893,0.0
